QIANFAN-73              
1 63159U 25046A   26004.26906488  .00000243  00000+0  35699-3 0  9999
2 63159  88.9782 317.6924 0016932  60.9188 299.3657 13.50984599 50451
QIANFAN-74              
1 63160U 25046B   26004.25248697  .00000225  00000+0  33033-3 0  9991
2 63160  88.9783 317.5830 0001968  70.9481 289.1883 13.50981557 50515
QIANFAN-75              
1 63161U 25046C   26004.23970980  .00000254  00000+0  37462-3 0  9999
2 63161  88.9784 317.8182 0018122  63.3575 296.9430 13.50987718 50384
QIANFAN-76              
1 63162U 25046D   26004.23636126  .00000236  00000+0  34642-3 0  9998
2 63162  88.9783 317.7991 0015682  64.1495 296.1271 13.50986936 50396
QIANFAN-77              
1 63163U 25046E   26004.26261342  .00000658  00000+0  46942-3 0  9990
2 63163  88.9784 315.6188 0015883  17.9938 342.1798 13.96110839 51594
QIANFAN-78              
1 63164U 25046F   26004.27726342  .00000246  00000+0  36189-3 0  9993
2 63164  88.9782 317.6586 0017066  65.8863 294.4071 13.50985502 50477
QIANFAN-79              
1 63165U 25046G   26004.30589506  .00000253  00000+0  37313-3 0  9995
2 63165  88.9786 317.7640 0016749  64.3159 295.9720 13.50987348 50425
QIANFAN-80              
1 63166U 25046H   26004.24838472  .00000252  00000+0  37108-3 0  9999
2 63166  88.9784 317.4763 0015734  68.2744 292.0081 13.50985366 50575
